      2.10          N: GNSS NAV DATA                        RINEX VERSION / TYPE
fic2rin                                 02/19/2023 00:17:34 PGM / RUN BY / DATE
                                                            END OF HEADER
7  23  2 18  1 59 44.0  .238996930420D-03 -.716227077646D-11  .000000000000D+00
     .300000000000D+01  .271250000000D+02  .506913972145D-08  .200547767855D+01
     .121444463730D-05  .167468577856D-01  .666268169880D-05  .515358224869D+04
     .525584000000D+06 -.307336449623D-06  .989140168698D+00 -.350177288055D-06
     .950337957779D+00  .246875000000D+03 -.222457309394D+01 -.814283918194D-08
     .519664503255D-09  .100000000000D+01  .224900000000D+04  .000000000000D+00
     .240000000000D+01  .000000000000D+00 -.111758708954D-07  .300000000000D+01
     .518400000000D+06  .400000000000D+01
26 23  2 18 12  0  0.0  .241591595113D-03  .341060513165D-12  .000000000000D+00
     .320000000000D+02 -.233125000000D+02  .548772858592D-08 -.707206034701D+00
    -.124052166939D-05  .786785886157D-02  .643543899059D-05  .515363032532D+04
     .561600000000D+06  .163912773132D-06  .196871000339D+01  .391155481339D-07
     .934363897378D+00  .240625000000D+03  .450346648666D+00 -.850928301722D-08
    -.661813281465D-09  .100000000000D+01  .224900000000D+04  .000000000000D+00
     .240000000000D+01  .000000000000D+00  .698491930962D-08  .320000000000D+02
     .554400000000D+06  .400000000000D+01
13 23  2 18 12  0  0.0  .478046480566D-03  .602540239925D-11  .000000000000D+00
     .280000000000D+02 -.531875000000D+02  .403123934587D-08 -.295110186119D+01
    -.286474823952D-05  .676306779496D-02  .131763517857D-04  .515367465973D+04
     .561600000000D+06 -.745058059692D-08  .761589315023D-01 -.875443220139D-07
     .970002558191D+00  .128093750000D+03  .933232573088D+00 -.751888462030D-08
     .522164607395D-09  .100000000000D+01  .224900000000D+04  .000000000000D+00
     .240000000000D+01  .000000000000D+00 -.111758708954D-07  .280000000000D+02
     .554400000000D+06  .400000000000D+01
14 23  2 18 12  0  0.0 -.242278911173D-04  .909494701773D-11  .000000000000D+00
     .100000000000D+03 -.238437500000D+02  .499770817461D-08  .224827507322D+00
    -.141374766827D-05  .267527368851D-02  .728294253349D-05  .515366234016D+04
     .561600000000D+06 -.745058059692D-08  .206664290957D+01  .596046447754D-07
     .949345818441D+00  .232187500000D+03 -.308090004458D+01 -.825498671047D-08
    -.748959768609D-09  .100000000000D+01  .224900000000D+04  .000000000000D+00
     .240000000000D+01  .000000000000D+00 -.791624188423D-08  .100000000000D+03
     .554400000000D+06  .400000000000D+01
15 23  2 18 12  0  0.0  .145211815834D-04  .329691829393D-11  .000000000000D+00
     .770000000000D+02 -.120218750000D+03  .481127183736D-08  .281934976199D+01
    -.624172389507D-05  .147356913658D-01  .126194208860D-04  .515368745804D+04
     .561600000000D+06  .465661287308D-07 -.198204671654D+00 -.173225998878D-06
     .932281591488D+00  .117843750000D+03  .117915529767D+01 -.778389565907D-08
     .232152527227D-09  .100000000000D+01  .224900000000D+04  .000000000000D+00
     .240000000000D+01  .000000000000D+00 -.107102096081D-07  .770000000000D+02
     .554400000000D+06  .400000000000D+01
31 23  2 18 12  0  0.0 -.209565274417D-03 -.102318153949D-11  .000000000000D+00
     .680000000000D+02  .256562500000D+02  .511771317330D-08  .378144803775D+00
     .154040753841D-05  .107726863353D-01  .656023621559D-05  .515364676094D+04
     .561600000000D+06  .558793544769D-07  .100841659550D+01  .150874257088D-06
     .954447350255D+00  .246875000000D+03  .502115403259D+00 -.831320342115D-08
     .380015829185D-09  .100000000000D+01  .224900000000D+04  .000000000000D+00
     .240000000000D+01  .000000000000D+00 -.135041773319D-07  .680000000000D+02
     .554400000000D+06  .400000000000D+01
19 23  2 18 12  0  0.0  .279336702079D-03  .511590769747D-11  .000000000000D+00
     .600000000000D+02  .116187500000D+03  .380515850013D-08 -.390171391862D+00
     .608339905739D-05  .910551601555D-02  .109132379293D-04  .515360904503D+04
     .561600000000D+06 -.162050127983D-06 -.309613257814D+01 -.208616256714D-06
     .974917446528D+00  .182562500000D+03  .224291489896D+01 -.768532012443D-08
    -.585738684082D-10  .100000000000D+01  .224900000000D+04  .000000000000D+00
     .240000000000D+01  .000000000000D+00 -.153668224812D-07  .600000000000D+02
     .554400000000D+06  .400000000000D+01
17 23  2 18 12  0  0.0  .700790435076D-03  .227373675443D-11  .000000000000D+00
     .720000000000D+02  .115156250000D+03  .367229582300D-08 -.253213580450D+01
     .596605241299D-05  .136506379349D-01  .114161521196D-04  .515372527122D+04
     .561600000000D+06  .193715095520D-06 -.314071545865D+01  .447034835815D-07
     .975905210278D+00  .167718750000D+03 -.141912510869D+01 -.733316259851D-08
    -.127505311108D-09  .100000000000D+01  .224900000000D+04  .000000000000D+00
     .240000000000D+01  .000000000000D+00 -.111758708954D-07  .720000000000D+02
     .554400000000D+06  .400000000000D+01
25 23  2 18 12  0  0.0  .421128701419D-03  .318323145621D-11  .000000000000D+00
     .380000000000D+02 -.128750000000D+02  .501235164171D-08  .750056122391D-01
    -.635161995888D-06  .111649857135D-01  .725872814655D-05  .515376550674D+04
     .561600000000D+06 -.577419996262D-07  .202257559212D+01  .152736902237D-06
     .953598872398D+00  .235812500000D+03  .103125515907D+01 -.831177479021D-08
    -.699314843556D-09  .100000000000D+01  .224900000000D+04  .000000000000D+00
     .240000000000D+01  .000000000000D+00  .558793544769D-08  .380000000000D+02
     .554400000000D+06  .400000000000D+01
30 23  2 18 12  0  0.0 -.529881566763D-03  .136424205266D-11  .000000000000D+00
     .100000000000D+03  .388437500000D+02  .559844748352D-08  .825089135086D+00
     .223144888878D-05  .613824080210D-02  .604614615440D-05  .515362892532D+04
     .561600000000D+06  .260770320892D-07  .996433118148D+00  .372529029846D-07
     .935476388061D+00  .247468750000D+03 -.265196877573D+01 -.860857286733D-08
     .349657421778D-09  .100000000000D+01  .224900000000D+04  .000000000000D+00
     .340000000000D+01  .000000000000D+00  .372529029846D-08  .100000000000D+03
     .554400000000D+06  .400000000000D+01
18 23  2 18 12  0  0.0 -.145741272718D-03 -.159161572810D-10  .000000000000D+00
     .172000000000D+03  .107125000000D+03  .445625704956D-08  .168919932486D+01
     .553391873837D-05  .297229923308D-02  .124052166939D-05  .515369241905D+04
     .561600000000D+06 -.409781932831D-07 -.213721906334D+01  .372529029846D-08
     .973275530181D+00  .362031250000D+03 -.311329110041D+01 -.840106422376D-08
     .331799535068D-09  .100000000000D+01  .224900000000D+04  .000000000000D+00
     .240000000000D+01  .000000000000D+00 -.838190317154D-08  .428000000000D+03
     .554400000000D+06  .400000000000D+01
11 23  2 18 12  0  0.0 -.107529107481D-03 -.103455022327D-10  .000000000000D+00
     .191000000000D+03  .861562500000D+02  .456197573889D-08  .304522854858D+01
     .463053584099D-05  .759157352149D-03  .103563070297D-05  .515370543861D+04
     .561600000000D+06  .502914190292D-07 -.210440089834D+01 -.689178705215D-07
     .964738714154D+00  .360906250000D+03 -.269587820043D+01 -.841713632180D-08
     .365372362083D-09  .100000000000D+01  .224900000000D+04  .000000000000D+00
     .240000000000D+01  .000000000000D+00 -.884756445885D-08  .959000000000D+03
     .554400000000D+06  .400000000000D+01
28 23  2 18 12  0  0.0  .172019936144D-04  .145519152284D-10  .000000000000D+00
     .231000000000D+03  .241250000000D+02  .488091759552D-08 -.619552451144D+00
     .141188502312D-05  .101582566276D-02  .710412859917D-05  .515361568832D+04
     .561600000000D+06  .931322574615D-08  .950372570421D+00 -.502914190292D-07
     .961549520557D+00  .240250000000D+03  .168594000628D+01 -.807712215884D-08
     .476805575152D-09  .100000000000D+01  .224900000000D+04  .000000000000D+00
     .340000000000D+01  .000000000000D+00 -.139698386192D-08  .231000000000D+03
     .554400000000D+06  .400000000000D+01
23 23  2 18 12  0  0.0  .669108703732D-05  .170530256582D-11  .000000000000D+00
     .225000000000D+03 -.139687500000D+03  .450768776329D-08  .660144774937D+00
    -.723078846931D-05  .300804222934D-02  .252574682236D-05  .515365114403D+04
     .561600000000D+06  .409781932831D-07 -.113712314065D+01  .689178705215D-07
     .972217675100D+00  .337531250000D+03 -.309960476739D+01 -.836749139675D-08
    -.278583032673D-09  .100000000000D+01  .224900000000D+04  .000000000000D+00
     .240000000000D+01  .000000000000D+00 -.838190317154D-08  .737000000000D+03
     .554400000000D+06  .400000000000D+01
22 23  2 18 12  0  0.0  .429498963058D-03  .761701812735D-11  .000000000000D+00
     .910000000000D+02 -.842812500000D+02  .413624371972D-08 -.274533878921D+01
    -.428035855293D-05  .139548728475D-01  .124461948872D-04  .515360520744D+04
     .561600000000D+06  .292435288429D-06  .218685684222D-01  .316649675369D-07
     .962825021275D+00  .136000000000D+03 -.182695527204D+01 -.746709674884D-08
     .464305054455D-09  .100000000000D+01  .224900000000D+04  .000000000000D+00
     .240000000000D+01  .630000000000D+02 -.791624188423D-08  .910000000000D+02
     .554400000000D+06  .400000000000D+01
